NORAD_CAT_ID,OBJECT_NAME,OBJECT_TYPE,EPOCH,MEAN_MOTION,ECCENTRICITY,INCLINATION,RA_OF_ASC_NODE,ARG_OF_PERICENTER,MEAN_ANOMALY,BSTAR,MEAN_MOTION_DOT,MEAN_MOTION_DDOT,TLE_LINE0,TLE_LINE1,TLE_LINE2,SEMIMAJOR_AXIS,PERIOD,APOGEE,PERIGEE,DECAYED
53777.0,STARLINK-4664,PAYLOAD,2022-12-08 00:04:26,15.08842021,0.0001899,53.2169,205.9998,47.1782,312.9369,1.5895e-06,-2.63e-06,0.0,0 STARLINK-4664,1 53777U 22111E   22342.00308036 -.00000263  00000-0  15895-5 0  9994,2 53777  53.2169 205.9998 0001899  47.1782 312.9369 15.08842021 13586,6917.874,95.437,541.053,538.4259999999998,0.0
53777.0,STARLINK-4664,PAYLOAD,2022-12-08 08:01:21,15.08841142,0.0002012,53.2171,204.5135,46.7268,313.3891,0.00011377,1.523e-05,0.0,0 STARLINK-4664,1 53777U 22111E   22342.33428049  .00001523  00000-0  11377-3 0  9995,2 53777  53.2171 204.5135 0002012  46.7268 313.3891 15.08841142 14443,6917.877,95.437,541.134,538.35,0.0
53777.0,STARLINK-4664,PAYLOAD,2022-12-08 22:19:50,15.08848496,0.0002013,53.2157,201.8371,46.9706,313.1455,0.00055383,8.539e-05,0.0,0 STARLINK-4664,1 53777U 22111E   22342.93044330  .00008539  00000-0  55383-3 0  9997,2 53777  53.2157 201.8371 0002013  46.9706 313.1455 15.08848496 14532,6917.854,95.437,541.112,538.327,0.0
53777.0,STARLINK-4664,PAYLOAD,2022-12-09 14:13:41,15.08848747,0.000201,53.2151,198.865,49.3556,310.7611,0.00029928,4.479e-05,0.0,0 STARLINK-4664,1 53777U 22111E   22343.59284123  .00004479  00000-0  29928-3 0  9991,2 53777  53.2151 198.8650 0002010  49.3556 310.7611 15.08848747 13825,6917.854,95.437,541.109,538.328,0.0
53777.0,STARLINK-4664,PAYLOAD,2022-12-09 22:10:37,15.08831443,0.0001905,53.2155,197.3765,46.5026,313.6124,-0.0001696,-2.986e-05,0.0,0 STARLINK-4664,1 53777U 22111E   22343.92404610 -.00002986  00000-0 -16960-3 0  9998,2 53777  53.2155 197.3765 0001905  46.5026 313.6124 15.08831443 13874,6917.906999999997,95.438,541.089,538.4540000000002,0.0
53777.0,STARLINK-4664,PAYLOAD,2022-12-10 18:50:38,15.08831616,0.0001893,53.2159,193.5117,45.9817,314.1331,8.0887e-05,9.99e-06,0.0,0 STARLINK-4664,1 53777U 22111E   22344.78517296  .00000999  00000-0  80887-4 0  9998,2 53777  53.2159 193.5117 0001893  45.9817 314.1331 15.08831616 14817,6917.906,95.438,541.081,538.461,0.0
53777.0,STARLINK-4664,PAYLOAD,2022-12-11 01:12:11,15.08835476,0.0001476,53.2157,192.3219,63.8317,296.2827,0.00016501,2.339e-05,0.0,0 STARLINK-4664,1 53777U 22111E   22345.05013335  .00002339  00000-0  16501-3 0  9995,2 53777  53.2157 192.3219 0001476  63.8317 296.2827 15.08835476 14049,6917.894,95.438,540.78,538.738,0.0
53777.0,STARLINK-4664,PAYLOAD,2022-12-11 20:16:49,15.08845199,0.0002077,53.2154,188.7546,44.1528,315.963,0.0004794,7.351e-05,0.0,0 STARLINK-4664,1 53777U 22111E   22345.84501599  .00007351  00000-0  47940-3 0  9996,2 53777  53.2154 188.7546 0002077  44.1528 315.9630 15.08845199 14978,6917.864000000001,95.437,541.1659999999998,538.293,0.0
53777.0,STARLINK-4664,PAYLOAD,2022-12-12 13:46:03,15.08855713,0.0002076,53.2153,185.4829,46.6792,313.4373,0.00041235,6.283e-05,0.0,0 STARLINK-4664,1 53777U 22111E   22346.57364955  .00006283  00000-0  41235-3 0  9994,2 53777  53.2153 185.4829 0002076  46.6792 313.4373 15.08855713 14277,6917.831999999999,95.437,541.134,538.261,0.0
53777.0,STARLINK-4664,PAYLOAD,2022-12-13 13:36:49,15.08845667,0.0002145,53.2157,181.0234,47.6965,312.4208,-2.9118e-05,-7.52e-06,0.0,0 STARLINK-4664,1 53777U 22111E   22347.56724524 -.00000752  00000-0 -29118-4 0  9990,2 53777  53.2157 181.0234 0002145  47.6965 312.4208 15.08845667 15233,6917.863,95.437,541.212,538.244,0.0
53777.0,STARLINK-4664,PAYLOAD,2022-12-13 19:58:22,15.08849186,0.0002076,53.2157,179.8332,45.9326,314.1837,5.8649e-05,6.46e-06,0.0,0 STARLINK-4664,1 53777U 22111E   22347.83220290  .00000646  00000-0  58649-4 0  9992,2 53777  53.2157 179.8332 0002076  45.9326 314.1837 15.08849186 14463,6917.852,95.437,541.153,538.281,0.0
53777.0,STARLINK-4664,PAYLOAD,2022-12-13 21:33:45,15.08847895,0.0002145,53.2161,179.5367,50.1326,309.9855,3.5927e-05,2.84e-06,0.0,0 STARLINK-4664,1 53777U 22111E   22347.89844301  .00000284  00000-0  35927-4 0  9995,2 53777  53.2161 179.5367 0002145  50.1326 309.9855 15.08847895 15286,6917.856,95.437,541.205,538.237,0.0
53777.0,STARLINK-4664,PAYLOAD,2022-12-14 11:52:13,15.08850965,0.0002096,53.2159,176.8596,49.9922,310.1254,5.1261e-05,5.28e-06,0.0,0 STARLINK-4664,1 53777U 22111E   22348.49459786  .00000528  00000-0  51261-4 0  9991,2 53777  53.2159 176.8596 0002096  49.9922 310.1254 15.08850965 15379,6917.847,95.437,541.1619999999998,538.262,0.0
53777.0,STARLINK-4664,PAYLOAD,2022-12-14 19:49:08,15.08849706,0.0002092,53.2158,175.3729,48.1041,312.0129,0.00016515,2.342e-05,0.0,0 STARLINK-4664,1 53777U 22111E   22348.82579602  .00002342  00000-0  16515-3 0  9996,2 53777  53.2158 175.3729 0002092  48.1041 312.0129 15.08849706 15428,6917.851,95.437,541.163,538.269,0.0
53777.0,STARLINK-4664,PAYLOAD,2022-12-14 21:24:31,15.08849747,0.0002107,53.2151,175.0749,43.548,316.5678,4.3929e-05,4.11e-06,0.0,0 STARLINK-4664,1 53777U 22111E   22348.89203571  .00000411  00000-0  43929-4 0  9997,2 53777  53.2151 175.0749 0002107  43.5480 316.5678 15.08849747 14627,6917.851,95.437,541.173,538.258,0.0
53777.0,STARLINK-4664,PAYLOAD,2022-12-15 00:35:18,15.08841154,0.0002265,53.2159,174.4809,48.5081,311.6105,-7.6967e-05,-1.513e-05,0.0,0 STARLINK-4664,1 53777U 22111E   22349.02452034 -.00001513  00000-0 -76967-4 0  9997,2 53777  53.2159 174.4809 0002265  48.5081 311.6105 15.08841154 14649,6917.877,95.437,541.309,538.175,0.0
53777.0,STARLINK-4664,PAYLOAD,2022-12-15 13:18:23,15.08838941,0.0002068,53.2159,172.1019,47.8633,312.2535,-2.8032e-05,-7.34e-06,0.0,0 STARLINK-4664,1 53777U 22111E   22349.55444113 -.00000734  00000-0 -28032-4 0  9998,2 53777  53.2159 172.1019 0002068  47.8633 312.2535 15.08838941 15536,6917.884,95.438,541.179,538.318,0.0
53777.0,STARLINK-4664,PAYLOAD,2022-12-15 19:39:56,15.08840989,0.0002123,53.216,170.9124,48.3687,311.7487,6.1527e-06,-1.9e-06,0.0,0 STARLINK-4664,1 53777U 22111E   22349.81940023 -.00000190  00000-0  61527-5 0  9990,2 53777  53.2160 170.9124 0002123  48.3687 311.7487 15.08840989 15577,6917.877,95.437,541.211,538.274,0.0
53777.0,STARLINK-4664,PAYLOAD,2022-12-16 05:12:14,15.08844634,0.0002094,53.216,169.1282,48.7704,311.3469,6.4565e-05,7.400000000000001e-06,0.0,0 STARLINK-4664,1 53777U 22111E   22350.21683842  .00000740  00000-0  64565-4 0  9993,2 53777  53.2160 169.1282 0002094  48.7704 311.3469 15.08844634 14827,6917.866,95.437,541.18,538.283,0.0
53777.0,STARLINK-4664,PAYLOAD,2022-12-16 13:09:10,15.08844949,0.0002097,53.216,167.6413,49.0865,311.0308,7.5721e-05,9.17e-06,0.0,0 STARLINK-4664,1 53777U 22111E   22350.54803780  .00000917  00000-0  75721-4 0  9996,2 53777  53.2160 167.6413 0002097  49.0865 311.0308 15.08844949 15684,6917.865,95.437,541.181,538.28,0.0
53777.0,STARLINK-4664,PAYLOAD,2022-12-16 21:06:06,15.08846231,0.0002087,53.2158,166.1545,46.3152,313.8013,0.000129,1.766e-05,0.0,0 STARLINK-4664,1 53777U 22111E   22350.87923656  .00001766  00000-0  12900-3 0  9999,2 53777  53.2158 166.1545 0002087  46.3152 313.8013 15.08846231 15734,6917.861,95.437,541.17,538.283,0.0
53777.0,STARLINK-4664,PAYLOAD,2022-12-16 22:41:29,15.08835289,0.0002251,53.2158,165.8575,46.7016,313.4163,-2.3642e-05,-6.65e-06,0.0,0 STARLINK-4664,1 53777U 22111E   22350.94548196 -.00000665  00000-0 -23642-4 0  9994,2 53777  53.2158 165.8575 0002251  46.7016 313.4163 15.08835289 14933,6917.895,95.438,541.317,538.203,0.0
53777.0,STARLINK-4664,PAYLOAD,2022-12-17 06:38:25,15.08828911,0.0002021,53.2156,164.37,49.9256,310.1913,-7.2519e-05,-1.442e-05,0.0,0 STARLINK-4664,1 53777U 22111E   22351.27668537 -.00001442  00000-0 -72519-4 0  9994,2 53777  53.2156 164.3700 0002021  49.9256 310.1913 15.08828911 15797,6917.9140000000025,95.438,541.177,538.381,0.0
53777.0,STARLINK-4664,PAYLOAD,2022-12-17 20:56:54,15.08832636,0.0002093,53.2159,161.6939,48.3998,311.7173,3.3062e-05,2.38e-06,0.0,0 STARLINK-4664,1 53777U 22111E   22351.87284982  .00000238  00000-0  33062-4 0  9998,2 53777  53.2159 161.6939 0002093  48.3998 311.7173 15.08832636 15883,6917.903,95.438,541.216,538.32,0.0
53777.0,STARLINK-4664,PAYLOAD,2022-12-18 11:15:22,15.08837183,0.0002111,53.2158,159.0174,49.8897,310.228,9.9912e-05,1.302e-05,0.0,0 STARLINK-4664,1 53777U 22111E   22352.46901109  .00001302  00000-0  99912-4 0  9990,2 53777  53.2158 159.0174 0002111  49.8897 310.2280 15.08837183 15165,6917.889,95.438,541.214,538.294,0.0
53777.0,STARLINK-4664,PAYLOAD,2022-12-18 20:47:41,15.08840977,0.0002106,53.2157,157.2331,50.7144,309.4035,0.00017222,2.454e-05,0.0,0 STARLINK-4664,1 53777U 22111E   22352.86645117  .00002454  00000-0  17222-3 0  9990,2 53777  53.2157 157.2331 0002106  50.7144 309.4035 15.08840977 16039,6917.877,95.437,541.1990000000002,538.285,0.0
53777.0,STARLINK-4664,PAYLOAD,2022-12-19 06:20:00,15.08845376,0.0002168,53.2154,155.4493,48.82,311.2978,0.00040571,6.176e-05,0.0,0 STARLINK-4664,1 53777U 22111E   22353.26389212  .00006176  00000-0  40571-3 0  9994,2 53777  53.2154 155.4493 0002168  48.8200 311.2978 15.08845376 16095,6917.864000000001,95.437,541.229,538.229,0.0
53777.0,STARLINK-4664,PAYLOAD,2022-12-19 17:27:41,15.08857973,0.0002193,53.2155,153.3676,48.897,311.2211,0.00056304,8.688e-05,0.0,0 STARLINK-4664,1 53777U 22111E   22353.72756706  .00008688  00000-0  56304-3 0  9992,2 53777  53.2155 153.3676 0002193  48.8970 311.2211 15.08857973 16162,6917.825,95.436,541.2080000000002,538.173,0.0
53777.0,STARLINK-4664,PAYLOAD,2022-12-19 20:38:27,15.0885975,0.0002204,53.2155,152.7729,48.9826,311.1356,0.00054705,8.434e-05,0.0,0 STARLINK-4664,1 53777U 22111E   22353.86004531  .00008434  00000-0  54705-3 0  9991,2 53777  53.2155 152.7729 0002204  48.9826 311.1356 15.08859750 15374,6917.82,95.436,541.21,538.16,0.0
